[{"OBJECT_NAME":"OBJECT E","OBJECT_ID":"2024-092E","EPOCH":"2026-03-09T21:25:47.709120","MEAN_MOTION":15.32997986,"ECCENTRICITY":0.0008531,"INCLINATION":97.642,"RA_OF_ASC_NODE":198.2099,"ARG_OF_PERICENTER":142.2606,"MEAN_ANOMALY":217.9236,"EPHEMERIS_TYPE":0,"CLASSIFICATION_TYPE":"U","NORAD_CAT_ID":59777,"ELEMENT_SET_NO":999,"REV_AT_EPOCH":10051,"BSTAR":0.00078641119,"MEAN_MOTION_DOT":0.00025066,"MEAN_MOTION_DDOT":0},{"OBJECT_NAME":"STARLINK-32847","OBJECT_ID":"2025-018F","EPOCH":"2026-03-09T21:30:41.326560","MEAN_MOTION":15.30225795,"ECCENTRICITY":0.00011233,"INCLINATION":53.1581,"RA_OF_ASC_NODE":308.3763,"ARG_OF_PERICENTER":64.5594,"MEAN_ANOMALY":295.5523,"EPHEMERIS_TYPE":0,"CLASSIFICATION_TYPE":"U","NORAD_CAT_ID":62811,"ELEMENT_SET_NO":999,"REV_AT_EPOCH":6320,"BSTAR":0.00082171663,"MEAN_MOTION_DOT":0.00024076,"MEAN_MOTION_DDOT":0}]
